County,Center Name,Peer Service Coordinator,Coverage Area,Phone Number,Email,Address,City,Zip Code,Longitude/Latitude,Location URL
Anderson,ACCESS,Bradley Erickson,East Texas,(903)721-2078,BErickson@ACCESS-CENTER.ORG,804 S. Main St. - Jacksonville,Jacksonville,75766,"31.957391097143667, -95.27019976003666",https://goo.gl/maps/ydAY3LZtDo5SwxqM9
Cherokee,ACCESS,Bradley Erickson,East Texas,(903)721-2078,BErickson@ACCESS-CENTER.ORG,804 S. Main St. - Jacksonville,Jacksonville,75766,"31.957391097143667, -95.27019976003666",https://goo.gl/maps/ydAY3LZtDo5SwxqM9
Henderson,Andrews Center,Jeffrey Hurley,Tyler,(903)343-2801,jhurley@andrewscenter.com,512 W. Charnwood - Tyler,Tyler,75701,"32.342966958532664, -95.3057352888627",https://goo.gl/maps/6vDvwR1X5VGpMACS6
Rains,Andrews Center,Jeffrey Hurley,Tyler,(903)343-2801,jhurley@andrewscenter.com,512 W. Charnwood - Tyler,Tyler,75701,"32.342966958532664, -95.3057352888627",https://goo.gl/maps/6vDvwR1X5VGpMACS6
Smith,Andrews Center,Jeffrey Hurley,Tyler,(903)343-2801,jhurley@andrewscenter.com,512 W. Charnwood - Tyler,Tyler,75701,"32.342966958532664, -95.3057352888627",https://goo.gl/maps/6vDvwR1X5VGpMACS6
Van Zandt,Andrews Center,Jeffrey Hurley,Tyler,(903)343-2801,jhurley@andrewscenter.com,512 W. Charnwood - Tyler,Tyler,75701,"32.342966958532664, -95.3057352888627",https://goo.gl/maps/6vDvwR1X5VGpMACS6
Wood,Andrews Center,Jeffrey Hurley,Tyler,(903)343-2801,jhurley@andrewscenter.com,512 W. Charnwood - Tyler,Tyler,75701,"32.342966958532664, -95.3057352888627",https://goo.gl/maps/6vDvwR1X5VGpMACS6
Travis,Samaritan Center,James Lambert,Capital Area,(512)527-4584,james@samaritan-center.org,"8956 Research Blvd, Bldg 2 - Austin",Austin,78758,"30.370316872031836, -97.72437288891095",https://goo.gl/maps/GB5PpSgSYtpcCEP9A
Nueces,Behavioral Health Center of Nueces County,Joseph P. Welsh,Corpus Christi,(361)886-1086,jwelsh@ncmhid.org,3733 S. Port Ave. - Corpus Christi,Corpus Christi,78415,"27.75910538241366, -97.42096337362797",https://goo.gl/maps/3kRahDuis1ob7p2S7
Callahan,Betty Hardwick Center,Ann McKee,Abilene Area,325-670-4818,amckee@bettyhardwick.org,765 Orange Street - Abilene,Abilene,79601,"32.45715006606034, -99.73692998885983",https://goo.gl/maps/FoZPHcEzeJuYnGb18
Jones,Betty Hardwick Center,Ann McKee,Abilene Area,325-670-4818,amckee@bettyhardwick.org,765 Orange Street - Abilene,Abilene,79601,"32.45715006606034, -99.73692998885983",https://goo.gl/maps/FoZPHcEzeJuYnGb18
Shackelford,Betty Hardwick Center,Ann McKee,Abilene Area,325-670-4818,amckee@bettyhardwick.org,765 Orange Street - Abilene,Abilene,79601,"32.45715006606034, -99.73692998885983",https://goo.gl/maps/FoZPHcEzeJuYnGb18
Stephens,Betty Hardwick Center,Ann McKee,Abilene Area,325-670-4818,amckee@bettyhardwick.org,765 Orange Street - Abilene,Abilene,79601,"32.45715006606034, -99.73692998885983",https://goo.gl/maps/FoZPHcEzeJuYnGb18
Taylor,Betty Hardwick Center,Ann McKee,Abilene Area,325-670-4818,amckee@bettyhardwick.org,765 Orange Street - Abilene,Abilene,79601,"32.45715006606034, -99.73692998885983",https://goo.gl/maps/FoZPHcEzeJuYnGb18
Bastrop,Bluebonnet Trails Community Services,Marcos Garcia,Bluebonnet Trails,(512)298-7590,marcos.garcia@bbtrails.org,425 N. Vaughn Avenue - Seguin,Seguin,78155,"29.571967098187578, -97.979136846601",https://goo.gl/maps/mHku8663xvthDK297
Burnet,Bluebonnet Trails Community Services,Marcos Garcia,Bluebonnet Trails,(512)298-7590,marcos.garcia@bbtrails.org,425 N. Vaughn Avenue - Seguin,Seguin,78155,"29.571967098187578, -97.979136846601",https://goo.gl/maps/mHku8663xvthDK297
Caldwell,Bluebonnet Trails Community Services,Marcos Garcia,Bluebonnet Trails,(512)298-7590,marcos.garcia@bbtrails.org,425 N. Vaughn Avenue - Seguin,Seguin,78155,"29.571967098187578, -97.979136846601",https://goo.gl/maps/mHku8663xvthDK297
Fayette,Bluebonnet Trails Community Services,Marcos Garcia,Bluebonnet Trails,(512)298-7590,marcos.garcia@bbtrails.org,425 N. Vaughn Avenue - Seguin,Seguin,78155,"29.571967098187578, -97.979136846601",https://goo.gl/maps/mHku8663xvthDK297
Gonzales,Bluebonnet Trails Community Services,Marcos Garcia,Bluebonnet Trails,(512)298-7590,marcos.garcia@bbtrails.org,425 N. Vaughn Avenue - Seguin,Seguin,78155,"29.571967098187578, -97.979136846601",https://goo.gl/maps/mHku8663xvthDK297
Guadalupe,Bluebonnet Trails Community Services,Marcos Garcia,Bluebonnet Trails,(512)298-7590,marcos.garcia@bbtrails.org,425 N. Vaughn Avenue - Seguin,Seguin,78155,"29.571967098187578, -97.979136846601",https://goo.gl/maps/mHku8663xvthDK297
Lee,Bluebonnet Trails Community Services,Marcos Garcia,Bluebonnet Trails,(512)298-7590,marcos.garcia@bbtrails.org,425 N. Vaughn Avenue - Seguin,Seguin,78155,"29.571967098187578, -97.979136846601",https://goo.gl/maps/mHku8663xvthDK297
Williamson,Bluebonnet Trails Community Services,Marcos Garcia,Bluebonnet Trails,(512)298-7590,marcos.garcia@bbtrails.org,425 N. Vaughn Avenue - Seguin,Seguin,78155,"29.571967098187578, -97.979136846601",https://goo.gl/maps/mHku8663xvthDK297
Jim Hogg,Border Region Behavioral Health Center,Jerry Alvarado,Laredo,(956)771-0335,gerardoa@borderregion.org,1500 Pappas Street - Laredo,Laredo,78401,"27.537116434175193, -99.47639523130407",https://goo.gl/maps/tTMb1d1z5n4wduEr5
Starr,Border Region Behavioral Health Center,Jerry Alvarado,Laredo,(956)771-0335,gerardoa@borderregion.org,1500 Pappas Street - Laredo,Laredo,78401,"27.537116434175193, -99.47639523130407",https://goo.gl/maps/tTMb1d1z5n4wduEr5
Webb,Border Region Behavioral Health Center,Jerry Alvarado,Laredo,(956)771-0335,gerardoa@borderregion.org,1500 Pappas Street - Laredo,Laredo,78401,"27.537116434175193, -99.47639523130407",https://goo.gl/maps/tTMb1d1z5n4wduEr5
Zapata,Border Region Behavioral Health Center,Jerry Alvarado,Laredo,(956)771-0335,gerardoa@borderregion.org,1500 Pappas Street - Laredo,Laredo,78401,"27.537116434175193, -99.47639523130407",https://goo.gl/maps/tTMb1d1z5n4wduEr5
Angelina,Burke,Michele Conner,Lufkin,(936)225-2887,Michele.Conner@myburke.org,4101 S. Medford Drive - Lufkin,Lufkin,75901,"31.313333851744336, -94.71856596005253",https://goo.gl/maps/DnCveLJfRCKhxrYa6
Houston,Burke,Michele Conner,Lufkin,(936)225-2887,Michele.Conner@myburke.org,4101 S. Medford Drive - Lufkin,Lufkin,75901,"31.313333851744336, -94.71856596005253",https://goo.gl/maps/DnCveLJfRCKhxrYa6
Jasper,Burke,Michele Conner,Lufkin,(936)225-2887,Michele.Conner@myburke.org,4101 S. Medford Drive - Lufkin,Lufkin,75901,"31.313333851744336, -94.71856596005253",https://goo.gl/maps/DnCveLJfRCKhxrYa6
Nacogdoches,Burke,Michele Conner,Lufkin,(936)225-2887,Michele.Conner@myburke.org,4101 S. Medford Drive - Lufkin,Lufkin,75901,"31.313333851744336, -94.71856596005253",https://goo.gl/maps/DnCveLJfRCKhxrYa6
Newton,Burke,Michele Conner,Lufkin,(936)225-2887,Michele.Conner@myburke.org,4101 S. Medford Drive - Lufkin,Lufkin,75901,"31.313333851744336, -94.71856596005253",https://goo.gl/maps/DnCveLJfRCKhxrYa6
Polk,Burke,Michele Conner,Lufkin,(936)225-2887,Michele.Conner@myburke.org,4101 S. Medford Drive - Lufkin,Lufkin,75901,"31.313333851744336, -94.71856596005253",https://goo.gl/maps/DnCveLJfRCKhxrYa6
Sabine,Burke,Michele Conner,Lufkin,(936)225-2887,Michele.Conner@myburke.org,4101 S. Medford Drive - Lufkin,Lufkin,75901,"31.313333851744336, -94.71856596005253",https://goo.gl/maps/DnCveLJfRCKhxrYa6
San Augustine,Burke,Michele Conner,Lufkin,(936)225-2887,Michele.Conner@myburke.org,4101 S. Medford Drive - Lufkin,Lufkin,75901,"31.313333851744336, -94.71856596005253",https://goo.gl/maps/DnCveLJfRCKhxrYa6
San Jacinto,Burke,Michele Conner,Lufkin,(936)225-2887,Michele.Conner@myburke.org,4101 S. Medford Drive - Lufkin,Lufkin,75901,"31.313333851744336, -94.71856596005253",https://goo.gl/maps/DnCveLJfRCKhxrYa6
Shelby,Burke,Michele Conner,Lufkin,(936)225-2887,Michele.Conner@myburke.org,4101 S. Medford Drive - Lufkin,Lufkin,75901,"31.313333851744336, -94.71856596005253",https://goo.gl/maps/DnCveLJfRCKhxrYa6
Trinity,Burke,Michele Conner,Lufkin,(936)225-2887,Michele.Conner@myburke.org,4101 S. Medford Drive - Lufkin,Lufkin,75901,"31.313333851744336, -94.71856596005253",https://goo.gl/maps/DnCveLJfRCKhxrYa6
Tyler,Burke,Michele Conner,Lufkin,(936)225-2887,Michele.Conner@myburke.org,4101 S. Medford Drive - Lufkin,Lufkin,75901,"31.313333851744336, -94.71856596005253",https://goo.gl/maps/DnCveLJfRCKhxrYa6
Atascosa,Camino Real Community Services,James Schaale,South Central,(830)742-2038,JamesS@caminorealcs.org,19965 FM 3175 N. - Lytle,Lytle,78052,"29.22473600668137, -98.79486323126638",https://goo.gl/maps/bNW27AxJTDhUgNax7
Dimmit,Camino Real Community Services,James Schaale,South Central,(830)742-2038,JamesS@caminorealcs.org,19965 FM 3175 N. - Lytle,Lytle,78052,"29.22473600668137, -98.79486323126638",https://goo.gl/maps/bNW27AxJTDhUgNax7
Frio,Camino Real Community Services,James Schaale,South Central,(830)742-2038,JamesS@caminorealcs.org,19965 FM 3175 N. - Lytle,Lytle,78052,"29.22473600668137, -98.79486323126638",https://goo.gl/maps/bNW27AxJTDhUgNax7
Karnes,Camino Real Community Services,James Schaale,South Central,(830)742-2038,JamesS@caminorealcs.org,19965 FM 3175 N. - Lytle,Lytle,78052,"29.22473600668137, -98.79486323126638",https://goo.gl/maps/bNW27AxJTDhUgNax7
La Salle,Camino Real Community Services,James Schaale,South Central,(830)742-2038,JamesS@caminorealcs.org,19965 FM 3175 N. - Lytle,Lytle,78052,"29.22473600668137, -98.79486323126638",https://goo.gl/maps/bNW27AxJTDhUgNax7
Maverick,Camino Real Community Services,James Schaale,South Central,(830)742-2038,JamesS@caminorealcs.org,19965 FM 3175 N. - Lytle,Lytle,78052,"29.22473600668137, -98.79486323126638",https://goo.gl/maps/bNW27AxJTDhUgNax7
McMullen,Camino Real Community Services,James Schaale,South Central,(830)742-2038,JamesS@caminorealcs.org,19965 FM 3175 N. - Lytle,Lytle,78052,"29.22473600668137, -98.79486323126638",https://goo.gl/maps/bNW27AxJTDhUgNax7
Wilson,Camino Real Community Services,James Schaale,South Central,(830)742-2038,JamesS@caminorealcs.org,19965 FM 3175 N. - Lytle,Lytle,78052,"29.22473600668137, -98.79486323126638",https://goo.gl/maps/bNW27AxJTDhUgNax7
Zavala,Camino Real Community Services,James Schaale,South Central,(830)742-2038,JamesS@caminorealcs.org,19965 FM 3175 N. - Lytle,Lytle,78052,"29.22473600668137, -98.79486323126638",https://goo.gl/maps/bNW27AxJTDhUgNax7
Brown,Center for Life Resources,Sean Lewis,Heart of Texas/Brownwood,(325)998-6533,sean.lewis@cflr.us,2222 US-377 - Brownwood,Brownwood,76801,"31.705641981509025, -98.99368516004289",https://goo.gl/maps/x7vFVJhRZftRsRT37
Coleman,Center for Life Resources,Sean Lewis,Heart of Texas/Brownwood,(325)998-6533,sean.lewis@cflr.us,2222 US-377 - Brownwood,Brownwood,76801,"31.705641981509025, -98.99368516004289",https://goo.gl/maps/x7vFVJhRZftRsRT37
Comanche,Center for Life Resources,Sean Lewis,Heart of Texas/Brownwood,(325)998-6533,sean.lewis@cflr.us,2222 US-377 - Brownwood,Brownwood,76801,"31.705641981509025, -98.99368516004289",https://goo.gl/maps/x7vFVJhRZftRsRT37
Eastland,Center for Life Resources,Sean Lewis,Heart of Texas/Brownwood,(325)998-6533,sean.lewis@cflr.us,2222 US-377 - Brownwood,Brownwood,76801,"31.705641981509025, -98.99368516004289",https://goo.gl/maps/x7vFVJhRZftRsRT37
McCulloch,Center for Life Resources,Sean Lewis,Heart of Texas/Brownwood,(325)998-6533,sean.lewis@cflr.us,2222 US-377 - Brownwood,Brownwood,76801,"31.705641981509025, -98.99368516004289",https://goo.gl/maps/x7vFVJhRZftRsRT37
Mills,Center for Life Resources,Sean Lewis,Heart of Texas/Brownwood,(325)998-6533,sean.lewis@cflr.us,2222 US-377 - Brownwood,Brownwood,76801,"31.705641981509025, -98.99368516004289",https://goo.gl/maps/x7vFVJhRZftRsRT37
San Saba,Center for Life Resources,Sean Lewis,Heart of Texas/Brownwood,(325)998-6533,sean.lewis@cflr.us,2222 US-377 - Brownwood,Brownwood,76801,"31.705641981509025, -98.99368516004289",https://goo.gl/maps/x7vFVJhRZftRsRT37
Bell,Central Counties Services,Greg Gutierrez,Greater Fort Hood Area,254-813-5834,BEITZ.MVPN2@gmail.com,204 Priest Drive - Killeen,Killeen,76541,"31.11464102242055, -97.73375436005738",https://goo.gl/maps/YmhD6USDU5iETuk67
Coryell,Central Counties Services,Greg Gutierrez,Greater Fort Hood Area,254-813-5834,BEITZ.MVPN2@gmail.com,204 Priest Drive - Killeen,Killeen,76541,"31.11464102242055, -97.73375436005738",https://goo.gl/maps/YmhD6USDU5iETuk67
Hamilton,Central Counties Services,Greg Gutierrez,Greater Fort Hood Area,254-813-5834,BEITZ.MVPN2@gmail.com,204 Priest Drive - Killeen,Killeen,76541,"31.11464102242055, -97.73375436005738",https://goo.gl/maps/YmhD6USDU5iETuk67
Lampasas,Central Counties Services,Greg Gutierrez,Greater Fort Hood Area,254-813-5834,BEITZ.MVPN2@gmail.com,204 Priest Drive - Killeen,Killeen,76541,"31.11464102242055, -97.73375436005738",https://goo.gl/maps/YmhD6USDU5iETuk67
Milam,Central Counties Services,Greg Gutierrez,Greater Fort Hood Area,254-813-5834,BEITZ.MVPN2@gmail.com,204 Priest Drive - Killeen,Killeen,76541,"31.11464102242055, -97.73375436005738",https://goo.gl/maps/YmhD6USDU5iETuk67
Bailey,Central Plains Center,Charles Pierce,Plainview,(806)685-1399,charlesp@clplains.org,715 Houston St - Plainview,Plainview,79072,"34.18816446509348, -101.7133787311438",https://goo.gl/maps/9SntdXfvKmhEDUaE8
Briscoe,Central Plains Center,Charles Pierce,Plainview,(806)685-1399,charlesp@clplains.org,715 Houston St - Plainview,Plainview,79072,"34.18816446509348, -101.7133787311438",https://goo.gl/maps/9SntdXfvKmhEDUaE8
Castro,Central Plains Center,Charles Pierce,Plainview,(806)685-1399,charlesp@clplains.org,715 Houston St - Plainview,Plainview,79072,"34.18816446509348, -101.7133787311438",https://goo.gl/maps/9SntdXfvKmhEDUaE8
Floyd,Central Plains Center,Charles Pierce,Plainview,(806)685-1399,charlesp@clplains.org,715 Houston St - Plainview,Plainview,79072,"34.18816446509348, -101.7133787311438",https://goo.gl/maps/9SntdXfvKmhEDUaE8
Hale,Central Plains Center,Charles Pierce,Plainview,(806)685-1399,charlesp@clplains.org,715 Houston St - Plainview,Plainview,79072,"34.18816446509348, -101.7133787311438",https://goo.gl/maps/9SntdXfvKmhEDUaE8
Lamb,Central Plains Center,Charles Pierce,Plainview,(806)685-1399,charlesp@clplains.org,715 Houston St - Plainview,Plainview,79072,"34.18816446509348, -101.7133787311438",https://goo.gl/maps/9SntdXfvKmhEDUaE8
Motley,Central Plains Center,Charles Pierce,Plainview,(806)685-1399,charlesp@clplains.org,715 Houston St - Plainview,Plainview,79072,"34.18816446509348, -101.7133787311438",https://goo.gl/maps/9SntdXfvKmhEDUaE8
Parmer,Central Plains Center,Charles Pierce,Plainview,(806)685-1399,charlesp@clplains.org,715 Houston St - Plainview,Plainview,79072,"34.18816446509348, -101.7133787311438",https://goo.gl/maps/9SntdXfvKmhEDUaE8
Swisher,Central Plains Center,Charles Pierce,Plainview,(806)685-1399,charlesp@clplains.org,715 Houston St - Plainview,Plainview,79072,"34.18816446509348, -101.7133787311438",https://goo.gl/maps/9SntdXfvKmhEDUaE8
Aransas,Coastal Plains Community Center,Jaime Cantu,Coastal Bend Area,361-592-6481,JCantu@CoastalPlainsCtr.org,1621 E. Corral - Kingsville,Kingsville,78363,"27.530418747222615, -97.84595386013987",https://goo.gl/maps/g3bCVvwjrzjBchC9A
Bee,Coastal Plains Community Center,Jaime Cantu,Coastal Bend Area,361-592-6481,JCantu@CoastalPlainsCtr.org,1621 E. Corral - Kingsville,Kingsville,78363,"27.530418747222615, -97.84595386013987",https://goo.gl/maps/g3bCVvwjrzjBchC9A
Brooks,Coastal Plains Community Center,Jaime Cantu,Coastal Bend Area,361-592-6481,JCantu@CoastalPlainsCtr.org,1621 E. Corral - Kingsville,Kingsville,78363,"27.530418747222615, -97.84595386013987",https://goo.gl/maps/g3bCVvwjrzjBchC9A
Duval,Coastal Plains Community Center,Jaime Cantu,Coastal Bend Area,361-592-6481,JCantu@CoastalPlainsCtr.org,1621 E. Corral - Kingsville,Kingsville,78363,"27.530418747222615, -97.84595386013987",https://goo.gl/maps/g3bCVvwjrzjBchC9A
Jim Wells,Coastal Plains Community Center,Jaime Cantu,Coastal Bend Area,361-592-6481,JCantu@CoastalPlainsCtr.org,1621 E. Corral - Kingsville,Kingsville,78363,"27.530418747222615, -97.84595386013987",https://goo.gl/maps/g3bCVvwjrzjBchC9A
Kenedy,Coastal Plains Community Center,Jaime Cantu,Coastal Bend Area,361-592-6481,JCantu@CoastalPlainsCtr.org,1621 E. Corral - Kingsville,Kingsville,78363,"27.530418747222615, -97.84595386013987",https://goo.gl/maps/g3bCVvwjrzjBchC9A
Kleberg,Coastal Plains Community Center,Jaime Cantu,Coastal Bend Area,361-592-6481,JCantu@CoastalPlainsCtr.org,1621 E. Corral - Kingsville,Kingsville,78363,"27.530418747222615, -97.84595386013987",https://goo.gl/maps/g3bCVvwjrzjBchC9A
Live Oak,Coastal Plains Community Center,Jaime Cantu,Coastal Bend Area,361-592-6481,JCantu@CoastalPlainsCtr.org,1621 E. Corral - Kingsville,Kingsville,78363,"27.530418747222615, -97.84595386013987",https://goo.gl/maps/g3bCVvwjrzjBchC9A
San Patricio,Coastal Plains Community Center,Jaime Cantu,Coastal Bend Area,361-592-6481,JCantu@CoastalPlainsCtr.org,1621 E. Corral - Kingsville,Kingsville,78363,"27.530418747222615, -97.84595386013987",https://goo.gl/maps/g3bCVvwjrzjBchC9A
Bowie,Community Healthcore,Ken Hansen,North East Texas,(903)932-6103,kenneth.hansen@communityhealthcore.com,501 Pine Tree Road - Longview,Longview,75605,"32.51105879745063, -94.79725986002282",https://goo.gl/maps/kCAA6snbRo2Lmfdr9
Cass,Community Healthcore,Ken Hansen,North East Texas,(903)932-6103,kenneth.hansen@communityhealthcore.com,501 Pine Tree Road - Longview,Longview,75605,"32.51105879745063, -94.79725986002282",https://goo.gl/maps/kCAA6snbRo2Lmfdr9
Gregg,Community Healthcore,Ken Hansen,North East Texas,(903)932-6103,kenneth.hansen@communityhealthcore.com,501 Pine Tree Road - Longview,Longview,75605,"32.51105879745063, -94.79725986002282",https://goo.gl/maps/kCAA6snbRo2Lmfdr9
Harrison,Community Healthcore,Ken Hansen,North East Texas,(903)932-6103,kenneth.hansen@communityhealthcore.com,501 Pine Tree Road - Longview,Longview,75605,"32.51105879745063, -94.79725986002282",https://goo.gl/maps/kCAA6snbRo2Lmfdr9
Marion,Community Healthcore,Ken Hansen,North East Texas,(903)932-6103,kenneth.hansen@communityhealthcore.com,501 Pine Tree Road - Longview,Longview,75605,"32.51105879745063, -94.79725986002282",https://goo.gl/maps/kCAA6snbRo2Lmfdr9
Panola,Community Healthcore,Ken Hansen,North East Texas,(903)932-6103,kenneth.hansen@communityhealthcore.com,501 Pine Tree Road - Longview,Longview,75605,"32.51105879745063, -94.79725986002282",https://goo.gl/maps/kCAA6snbRo2Lmfdr9
Red River,Community Healthcore,Ken Hansen,North East Texas,(903)932-6103,kenneth.hansen@communityhealthcore.com,501 Pine Tree Road - Longview,Longview,75605,"32.51105879745063, -94.79725986002282",https://goo.gl/maps/kCAA6snbRo2Lmfdr9
Rusk,Community Healthcore,Ken Hansen,North East Texas,(903)932-6103,kenneth.hansen@communityhealthcore.com,501 Pine Tree Road - Longview,Longview,75605,"32.51105879745063, -94.79725986002282",https://goo.gl/maps/kCAA6snbRo2Lmfdr9
Upshur,Community Healthcore,Ken Hansen,North East Texas,(903)932-6103,kenneth.hansen@communityhealthcore.com,501 Pine Tree Road - Longview,Longview,75605,"32.51105879745063, -94.79725986002282",https://goo.gl/maps/kCAA6snbRo2Lmfdr9
Denton,Denton County MHMR Center,Kasey Brown,Denton,(701)866-2758,kasey@dentoncountymvpn.com,2519 Scripture Street - Denton,Denton,76201,"33.21853823220251, -97.16497386000475",https://goo.gl/maps/okov7b7zmVuAghxR6
El Paso,Emergence Health Network,Shelia Anthony,El Paso,(915)747-3590 ext. 15127,syanthony@EHNELPASO.ORG,9565 Diana Drive - El Paso,El Paso,79924,"31.880750685884315, -106.4307058312029",https://goo.gl/maps/sv2yCTiCx54ZWMTw9
Calhoun,Gulf Bend Center,Oscar Pulido,Victoria,(361)220-9984,oscar5327@gulfbend.org,6502 Nursery Drive Suite. 100 - Victoria,Victoria,77904,"28.853815300259253, -97.02028016011052",https://goo.gl/maps/yCAkUG5XSpgKBkMc9
DeWitt,Gulf Bend Center,Oscar Pulido,Victoria,(361)220-9984,oscar5327@gulfbend.org,6502 Nursery Drive Suite. 100 - Victoria,Victoria,77904,"28.853815300259253, -97.02028016011052",https://goo.gl/maps/yCAkUG5XSpgKBkMc9
Goliad,Gulf Bend Center,Oscar Pulido,Victoria,(361)220-9984,oscar5327@gulfbend.org,6502 Nursery Drive Suite. 100 - Victoria,Victoria,77904,"28.853815300259253, -97.02028016011052",https://goo.gl/maps/yCAkUG5XSpgKBkMc9
Jackson,Gulf Bend Center,Oscar Pulido,Victoria,(361)220-9984,oscar5327@gulfbend.org,6502 Nursery Drive Suite. 100 - Victoria,Victoria,77904,"28.853815300259253, -97.02028016011052",https://goo.gl/maps/yCAkUG5XSpgKBkMc9
Lavaca,Gulf Bend Center,Oscar Pulido,Victoria,(361)220-9984,oscar5327@gulfbend.org,6502 Nursery Drive Suite. 100 - Victoria,Victoria,77904,"28.853815300259253, -97.02028016011052",https://goo.gl/maps/yCAkUG5XSpgKBkMc9
Refugio,Gulf Bend Center,Oscar Pulido,Victoria,(361)220-9984,oscar5327@gulfbend.org,6502 Nursery Drive Suite. 100 - Victoria,Victoria,77904,"28.853815300259253, -97.02028016011052",https://goo.gl/maps/yCAkUG5XSpgKBkMc9
Victoria,Gulf Bend Center,Oscar Pulido,Victoria,(361)220-9984,oscar5327@gulfbend.org,6502 Nursery Drive Suite. 100 - Victoria,Victoria,77904,"28.853815300259253, -97.02028016011052",https://goo.gl/maps/yCAkUG5XSpgKBkMc9
Brazoria,Gulf Coast Center,Glen McGraw,Galveston,(409)944-4437 ext. 10052,GlenM@gulfcoastcenter.org,"123 Rosenberg Street (25th), Suite 6 - Galveston",Galveston,77550,"29.306780596246956, -94.7970872312645",https://goo.gl/maps/osrXwtAdGtcyCvbZ9
Galveston,Gulf Coast Center,Glen McGraw,Galveston,(409)944-4437 ext. 10052,GlenM@gulfcoastcenter.org,"123 Rosenberg Street (25th), Suite 6 - Galveston",Galveston,77550,"29.306780596246956, -94.7970872312645",https://goo.gl/maps/osrXwtAdGtcyCvbZ9
Bosque,Heart of Texas Region MHMR Center,Position Available,Waco,TBA,TBA,110 S. 12th St.,Waco,76706,"31.551333480479222, -97.13779476004673",https://goo.gl/maps/K28f191QvB5cWu7P8
Falls,Heart of Texas Region MHMR Center,Position Available,Waco,TBA,TBA,110 S. 12th St.,Waco,76706,"31.551333480479222, -97.13779476004673",https://goo.gl/maps/K28f191QvB5cWu7P8
Freestone,Heart of Texas Region MHMR Center,Position Available,Waco,TBA,TBA,110 S. 12th St.,Waco,76706,"31.551333480479222, -97.13779476004673",https://goo.gl/maps/K28f191QvB5cWu7P8
Hill,Heart of Texas Region MHMR Center,Position Available,Waco,TBA,TBA,110 S. 12th St.,Waco,76706,"31.551333480479222, -97.13779476004673",https://goo.gl/maps/K28f191QvB5cWu7P8
Limestone,Heart of Texas Region MHMR Center,Position Available,Waco,TBA,TBA,110 S. 12th St.,Waco,76706,"31.551333480479222, -97.13779476004673",https://goo.gl/maps/K28f191QvB5cWu7P8
McLennan,Heart of Texas Region MHMR Center,Position Available,Waco,TBA,TBA,110 S. 12th St.,Waco,76706,"31.551333480479222, -97.13779476004673",https://goo.gl/maps/K28f191QvB5cWu7P8
Archer,Helen Farabee Centers,Elliot Bonner,Wichita Falls,(940)397-3315,bonnere@helenfarabee.org,500 Broad St - Wichita Falls,Wichita Falls,76307,"33.910537120090886, -98.50178803115115",https://goo.gl/maps/DYxkV1st2VQVRCUJ8
Baylor,Helen Farabee Centers,Elliot Bonner,Wichita Falls,(940)397-3315,bonnere@helenfarabee.org,500 Broad St - Wichita Falls,Wichita Falls,76307,"33.910537120090886, -98.50178803115115",https://goo.gl/maps/DYxkV1st2VQVRCUJ8
Childress,Helen Farabee Centers,Elliot Bonner,Wichita Falls,(940)397-3315,bonnere@helenfarabee.org,500 Broad St - Wichita Falls,Wichita Falls,76307,"33.910537120090886, -98.50178803115115",https://goo.gl/maps/DYxkV1st2VQVRCUJ8
Clay,Helen Farabee Centers,Elliot Bonner,Wichita Falls,(940)397-3315,bonnere@helenfarabee.org,500 Broad St - Wichita Falls,Wichita Falls,76307,"33.910537120090886, -98.50178803115115",https://goo.gl/maps/DYxkV1st2VQVRCUJ8
Cottle,Helen Farabee Centers,Elliot Bonner,Wichita Falls,(940)397-3315,bonnere@helenfarabee.org,500 Broad St - Wichita Falls,Wichita Falls,76307,"33.910537120090886, -98.50178803115115",https://goo.gl/maps/DYxkV1st2VQVRCUJ8
Dickens,Helen Farabee Centers,Elliot Bonner,Wichita Falls,(940)397-3315,bonnere@helenfarabee.org,500 Broad St - Wichita Falls,Wichita Falls,76307,"33.910537120090886, -98.50178803115115",https://goo.gl/maps/DYxkV1st2VQVRCUJ8
Foard,Helen Farabee Centers,Elliot Bonner,Wichita Falls,(940)397-3315,bonnere@helenfarabee.org,500 Broad St - Wichita Falls,Wichita Falls,76307,"33.910537120090886, -98.50178803115115",https://goo.gl/maps/DYxkV1st2VQVRCUJ8
Hardeman,Helen Farabee Centers,Elliot Bonner,Wichita Falls,(940)397-3315,bonnere@helenfarabee.org,500 Broad St - Wichita Falls,Wichita Falls,76307,"33.910537120090886, -98.50178803115115",https://goo.gl/maps/DYxkV1st2VQVRCUJ8
Haskell,Helen Farabee Centers,Elliot Bonner,Wichita Falls,(940)397-3315,bonnere@helenfarabee.org,500 Broad St - Wichita Falls,Wichita Falls,76307,"33.910537120090886, -98.50178803115115",https://goo.gl/maps/DYxkV1st2VQVRCUJ8
Jack,Helen Farabee Centers,Elliot Bonner,Wichita Falls,(940)397-3315,bonnere@helenfarabee.org,500 Broad St - Wichita Falls,Wichita Falls,76307,"33.910537120090886, -98.50178803115115",https://goo.gl/maps/DYxkV1st2VQVRCUJ8
King,Helen Farabee Centers,Elliot Bonner,Wichita Falls,(940)397-3315,bonnere@helenfarabee.org,500 Broad St - Wichita Falls,Wichita Falls,76307,"33.910537120090886, -98.50178803115115",https://goo.gl/maps/DYxkV1st2VQVRCUJ8
Knox,Helen Farabee Centers,Elliot Bonner,Wichita Falls,(940)397-3315,bonnere@helenfarabee.org,500 Broad St - Wichita Falls,Wichita Falls,76307,"33.910537120090886, -98.50178803115115",https://goo.gl/maps/DYxkV1st2VQVRCUJ8
Montague,Helen Farabee Centers,Elliot Bonner,Wichita Falls,(940)397-3315,bonnere@helenfarabee.org,500 Broad St - Wichita Falls,Wichita Falls,76307,"33.910537120090886, -98.50178803115115",https://goo.gl/maps/DYxkV1st2VQVRCUJ8
Stonewall,Helen Farabee Centers,Elliot Bonner,Wichita Falls,(940)397-3315,bonnere@helenfarabee.org,500 Broad St - Wichita Falls,Wichita Falls,76307,"33.910537120090886, -98.50178803115115",https://goo.gl/maps/DYxkV1st2VQVRCUJ8
Throckmorton,Helen Farabee Centers,Elliot Bonner,Wichita Falls,(940)397-3315,bonnere@helenfarabee.org,500 Broad St - Wichita Falls,Wichita Falls,76307,"33.910537120090886, -98.50178803115115",https://goo.gl/maps/DYxkV1st2VQVRCUJ8
Wichita,Helen Farabee Centers,Elliot Bonner,Wichita Falls,(940)397-3315,bonnere@helenfarabee.org,500 Broad St - Wichita Falls,Wichita Falls,76307,"33.910537120090886, -98.50178803115115",https://goo.gl/maps/DYxkV1st2VQVRCUJ8
Wilbarger,Helen Farabee Centers,Elliot Bonner,Wichita Falls,(940)397-3315,bonnere@helenfarabee.org,500 Broad St - Wichita Falls,Wichita Falls,76307,"33.910537120090886, -98.50178803115115",https://goo.gl/maps/DYxkV1st2VQVRCUJ8
Wise,Helen Farabee Centers,Elliot Bonner,Wichita Falls,(940)397-3315,bonnere@helenfarabee.org,500 Broad St - Wichita Falls,Wichita Falls,76307,"33.910537120090886, -98.50178803115115",https://goo.gl/maps/DYxkV1st2VQVRCUJ8
Young,Helen Farabee Centers,Elliot Bonner,Wichita Falls,(940)397-3315,bonnere@helenfarabee.org,500 Broad St - Wichita Falls,Wichita Falls,76307,"33.910537120090886, -98.50178803115115",https://goo.gl/maps/DYxkV1st2VQVRCUJ8
Bandera,Hill Country Mental Health & Developmental Disabilities Centers,Michael Fogerty,San Marcos,512-392-7155 Ext:1297,michael6552@hillcountry.org,"1921 Corporate Drive, Suite 103 - San Marcos",San Marcos,78666,"29.86396933398943, -97.95821137358028",https://goo.gl/maps/GqkG1Cip8kAQHJUb6
Blanco,Hill Country Mental Health & Developmental Disabilities Centers,Michael Fogerty,San Marcos,512-392-7155 Ext:1297,michael6552@hillcountry.org,"1921 Corporate Drive, Suite 103 - San Marcos",San Marcos,78666,"29.86396933398943, -97.95821137358028",https://goo.gl/maps/GqkG1Cip8kAQHJUb6
Comal,Hill Country Mental Health & Developmental Disabilities Centers,Michael Fogerty,San Marcos,512-392-7155 Ext:1297,michael6552@hillcountry.org,"1921 Corporate Drive, Suite 103 - San Marcos",San Marcos,78666,"29.86396933398943, -97.95821137358028",https://goo.gl/maps/GqkG1Cip8kAQHJUb6
Edwards,Hill Country Mental Health & Developmental Disabilities Centers,Michael Fogerty,San Marcos,512-392-7155 Ext:1297,michael6552@hillcountry.org,"1921 Corporate Drive, Suite 103 - San Marcos",San Marcos,78666,"29.86396933398943, -97.95821137358028",https://goo.gl/maps/GqkG1Cip8kAQHJUb6
Gillespie,Hill Country Mental Health & Developmental Disabilities Centers,Michael Fogerty,San Marcos,512-392-7155 Ext:1297,michael6552@hillcountry.org,"1921 Corporate Drive, Suite 103 - San Marcos",San Marcos,78666,"29.86396933398943, -97.95821137358028",https://goo.gl/maps/GqkG1Cip8kAQHJUb6
Hays,Hill Country Mental Health & Developmental Disabilities Centers,Michael Fogerty,San Marcos,512-392-7155 Ext:1297,michael6552@hillcountry.org,"1921 Corporate Drive, Suite 103 - San Marcos",San Marcos,78666,"29.86396933398943, -97.95821137358028",https://goo.gl/maps/GqkG1Cip8kAQHJUb6
Kendall,Hill Country Mental Health & Developmental Disabilities Centers,Michael Fogerty,San Marcos,512-392-7155 Ext:1297,michael6552@hillcountry.org,"1921 Corporate Drive, Suite 103 - San Marcos",San Marcos,78666,"29.86396933398943, -97.95821137358028",https://goo.gl/maps/GqkG1Cip8kAQHJUb6
Kerr,Hill Country Mental Health & Developmental Disabilities Centers,Michael Fogerty,San Marcos,512-392-7155 Ext:1297,michael6552@hillcountry.org,"1921 Corporate Drive, Suite 103 - San Marcos",San Marcos,78666,"29.86396933398943, -97.95821137358028",https://goo.gl/maps/GqkG1Cip8kAQHJUb6
Kimble,Hill Country Mental Health & Developmental Disabilities Centers,Michael Fogerty,San Marcos,512-392-7155 Ext:1297,michael6552@hillcountry.org,"1921 Corporate Drive, Suite 103 - San Marcos",San Marcos,78666,"29.86396933398943, -97.95821137358028",https://goo.gl/maps/GqkG1Cip8kAQHJUb6
Kinney,Hill Country Mental Health & Developmental Disabilities Centers,Michael Fogerty,San Marcos,512-392-7155 Ext:1297,michael6552@hillcountry.org,"1921 Corporate Drive, Suite 103 - San Marcos",San Marcos,78666,"29.86396933398943, -97.95821137358028",https://goo.gl/maps/GqkG1Cip8kAQHJUb6
Llano,Hill Country Mental Health & Developmental Disabilities Centers,Michael Fogerty,San Marcos,512-392-7155 Ext:1297,michael6552@hillcountry.org,"1921 Corporate Drive, Suite 103 - San Marcos",San Marcos,78666,"29.86396933398943, -97.95821137358028",https://goo.gl/maps/GqkG1Cip8kAQHJUb6
Mason,Hill Country Mental Health & Developmental Disabilities Centers,Michael Fogerty,San Marcos,512-392-7155 Ext:1297,michael6552@hillcountry.org,"1921 Corporate Drive, Suite 103 - San Marcos",San Marcos,78666,"29.86396933398943, -97.95821137358028",https://goo.gl/maps/GqkG1Cip8kAQHJUb6
Medina,Hill Country Mental Health & Developmental Disabilities Centers,Michael Fogerty,San Marcos,512-392-7155 Ext:1297,michael6552@hillcountry.org,"1921 Corporate Drive, Suite 103 - San Marcos",San Marcos,78666,"29.86396933398943, -97.95821137358028",https://goo.gl/maps/GqkG1Cip8kAQHJUb6
Menard,Hill Country Mental Health & Developmental Disabilities Centers,Michael Fogerty,San Marcos,512-392-7155 Ext:1297,michael6552@hillcountry.org,"1921 Corporate Drive, Suite 103 - San Marcos",San Marcos,78666,"29.86396933398943, -97.95821137358028",https://goo.gl/maps/GqkG1Cip8kAQHJUb6
Real,Hill Country Mental Health & Developmental Disabilities Centers,Michael Fogerty,San Marcos,512-392-7155 Ext:1297,michael6552@hillcountry.org,"1921 Corporate Drive, Suite 103 - San Marcos",San Marcos,78666,"29.86396933398943, -97.95821137358028",https://goo.gl/maps/GqkG1Cip8kAQHJUb6
Schleicher,Hill Country Mental Health & Developmental Disabilities Centers,Michael Fogerty,San Marcos,512-392-7155 Ext:1297,michael6552@hillcountry.org,"1921 Corporate Drive, Suite 103 - San Marcos",San Marcos,78666,"29.86396933398943, -97.95821137358028",https://goo.gl/maps/GqkG1Cip8kAQHJUb6
Sutton,Hill Country Mental Health & Developmental Disabilities Centers,Michael Fogerty,San Marcos,512-392-7155 Ext:1297,michael6552@hillcountry.org,"1921 Corporate Drive, Suite 103 - San Marcos",San Marcos,78666,"29.86396933398943, -97.95821137358028",https://goo.gl/maps/GqkG1Cip8kAQHJUb6
Uvalde,Hill Country Mental Health & Developmental Disabilities Centers,Michael Fogerty,San Marcos,512-392-7155 Ext:1297,michael6552@hillcountry.org,"1921 Corporate Drive, Suite 103 - San Marcos",San Marcos,78666,"29.86396933398943, -97.95821137358028",https://goo.gl/maps/GqkG1Cip8kAQHJUb6
Val Verde,Hill Country Mental Health & Developmental Disabilities Centers,Michael Fogerty,San Marcos,512-392-7155 Ext:1297,michael6552@hillcountry.org,"1921 Corporate Drive, Suite 103 - San Marcos",San Marcos,78666,"29.86396933398943, -97.95821137358028",https://goo.gl/maps/GqkG1Cip8kAQHJUb6
Camp,Lakes Regional Community Center,N/A,N/A,N/A,N/A,N/A,N/A,N/A,"33.65658836811385, -95.5360893423145",
Delta,Lakes Regional Community Center,N/A,N/A,N/A,N/A,N/A,N/A,N/A,"33.65658836811385, -95.5360893423145",
Ellis,Lakes Regional Community Center,N/A,N/A,N/A,N/A,N/A,N/A,N/A,"33.65658836811385, -95.5360893423145",
Franklin,Lakes Regional Community Center,N/A,N/A,N/A,N/A,N/A,N/A,N/A,"33.65658836811385, -95.5360893423145",
Hopkins,Lakes Regional Community Center,N/A,N/A,N/A,N/A,N/A,N/A,N/A,"33.65658836811385, -95.5360893423145",
Hunt,Lakes Regional Community Center,N/A,N/A,N/A,N/A,N/A,N/A,N/A,"33.65658836811385, -95.5360893423145",
Kaufman,Lakes Regional Community Center,N/A,N/A,N/A,N/A,N/A,N/A,N/A,"33.65658836811385, -95.5360893423145",
Lamar,Lakes Regional Community Center,N/A,N/A,N/A,N/A,N/A,N/A,N/A,"33.65658836811385, -95.5360893423145",
Morris,Lakes Regional Community Center,N/A,N/A,N/A,N/A,N/A,N/A,N/A,"33.65658836811385, -95.5360893423145",
Navarro,Lakes Regional Community Center,N/A,N/A,N/A,N/A,N/A,N/A,N/A,"33.65658836811385, -95.5360893423145",
Rockwall,Lakes Regional Community Center,N/A,N/A,N/A,N/A,N/A,N/A,N/A,"33.65658836811385, -95.5360893423145",
Titus,Lakes Regional Community Center,N/A,N/A,N/A,N/A,N/A,N/A,N/A,"33.65658836811385, -95.5360893423145",
Collin,LifePath Systems,Jackey Babb,Collin County,(972)562-0190,jbabb@lifepathsystems.org,P.O. Box 828 - McKinney,McKinney,75070,"33.20188222416654, -96.54057299911307",https://goo.gl/maps/svTg1QfTmWLgjrzC9
Dallas,Metrocare Services,Domingo Rodriguez,Dallas,(805)302-9494,domingo.rodriguez@metrocareservices.org,16160 Midway Road - Dallas,Dallas,75247,"32.96972710679211, -96.8417689311755",https://goo.gl/maps/HxFoCbCCUG44EP4z9
Brazos,MHMR Authority of Brazos Valley,Patrick Baca,Brazos Valley,(979)417-8215,BrazosValley.MVPN@gmail.com,"2710 Finfeather, Cooper Case Office Park, Suite DII-103 - Bryan",Bryan,77801,"30.64018813964348, -96.37185616006883",https://goo.gl/maps/DVYpVPmrgR3hJc8C9
Burleson,MHMR Authority of Brazos Valley,Patrick Baca,Brazos Valley,(979)417-8215,BrazosValley.MVPN@gmail.com,"2710 Finfeather, Cooper Case Office Park, Suite DII-103 - Bryan",Bryan,77801,"30.64018813964348, -96.37185616006883",https://goo.gl/maps/DVYpVPmrgR3hJc8C9
Grimes,MHMR Authority of Brazos Valley,Patrick Baca,Brazos Valley,(979)417-8215,BrazosValley.MVPN@gmail.com,"2710 Finfeather, Cooper Case Office Park, Suite DII-103 - Bryan",Bryan,77801,"30.64018813964348, -96.37185616006883",https://goo.gl/maps/DVYpVPmrgR3hJc8C9
Leon,MHMR Authority of Brazos Valley,Patrick Baca,Brazos Valley,(979)417-8215,BrazosValley.MVPN@gmail.com,"2710 Finfeather, Cooper Case Office Park, Suite DII-103 - Bryan",Bryan,77801,"30.64018813964348, -96.37185616006883",https://goo.gl/maps/DVYpVPmrgR3hJc8C9
Madison,MHMR Authority of Brazos Valley,Patrick Baca,Brazos Valley,(979)417-8215,BrazosValley.MVPN@gmail.com,"2710 Finfeather, Cooper Case Office Park, Suite DII-103 - Bryan",Bryan,77801,"30.64018813964348, -96.37185616006883",https://goo.gl/maps/DVYpVPmrgR3hJc8C9
Robertson,MHMR Authority of Brazos Valley,Patrick Baca,Brazos Valley,(979)417-8215,BrazosValley.MVPN@gmail.com,"2710 Finfeather, Cooper Case Office Park, Suite DII-103 - Bryan",Bryan,77801,"30.64018813964348, -96.37185616006883",https://goo.gl/maps/DVYpVPmrgR3hJc8C9
Washington,MHMR Authority of Brazos Valley,Patrick Baca,Brazos Valley,(979)417-8215,BrazosValley.MVPN@gmail.com,"2710 Finfeather, Cooper Case Office Park, Suite DII-103 - Bryan",Bryan,77801,"30.64018813964348, -96.37185616006883",https://goo.gl/maps/DVYpVPmrgR3hJc8C9
Harris,MHMR Authority of Harris County,Edward Howard,Houston,(832)449-8127,ehoward@mhahouston.org,"2211 Norfolk, Suite 810 - Houston",Houston,77098,"29.732362534080433, -95.41333477358333",https://goo.gl/maps/evoeF9gdPhfw2Uw97
Coke,MHMR Services for the Concho Valley,Richard Rodriguez,Concho Valley,(325)812-5241,rrodriguez@mhmrcv.org,"36 Etworth, Suite 600",San Angelo,76903,"31.454976325086005, -100.45650868888474",https://goo.gl/maps/EUzpRZW7Y5iD7zuWA
Concho,MHMR Services for the Concho Valley,Richard Rodriguez,Concho Valley,(325)812-5241,rrodriguez@mhmrcv.org,"36 Etworth, Suite 600",San Angelo,76903,"31.454976325086005, -100.45650868888474",https://goo.gl/maps/EUzpRZW7Y5iD7zuWA
Crockett,MHMR Services for the Concho Valley,Richard Rodriguez,Concho Valley,(325)812-5241,rrodriguez@mhmrcv.org,"36 Etworth, Suite 600",San Angelo,76903,"31.454976325086005, -100.45650868888474",https://goo.gl/maps/EUzpRZW7Y5iD7zuWA
Irion,MHMR Services for the Concho Valley,Richard Rodriguez,Concho Valley,(325)812-5241,rrodriguez@mhmrcv.org,"36 Etworth, Suite 600",San Angelo,76903,"31.454976325086005, -100.45650868888474",https://goo.gl/maps/EUzpRZW7Y5iD7zuWA
Reagan,MHMR Services for the Concho Valley,Richard Rodriguez,Concho Valley,(325)812-5241,rrodriguez@mhmrcv.org,"36 Etworth, Suite 600",San Angelo,76903,"31.454976325086005, -100.45650868888474",https://goo.gl/maps/EUzpRZW7Y5iD7zuWA
Sterling,MHMR Services for the Concho Valley,Richard Rodriguez,Concho Valley,(325)812-5241,rrodriguez@mhmrcv.org,"36 Etworth, Suite 600",San Angelo,76903,"31.454976325086005, -100.45650868888474",https://goo.gl/maps/EUzpRZW7Y5iD7zuWA
Tom Green,MHMR Services for the Concho Valley,Richard Rodriguez,Concho Valley,(325)812-5241,rrodriguez@mhmrcv.org,"36 Etworth, Suite 600",San Angelo,76903,"31.454976325086005, -100.45650868888474",https://goo.gl/maps/EUzpRZW7Y5iD7zuWA
Tarrant,MHMR Tarrant,LaJohn McDonald,Fort Worth,(817)266-7507,lajohn.mcdonaldjr@mhmrtc.org,129 Harmon Road - Hurst,Hurst,76053,"32.810917702477084, -97.1732382446726",https://goo.gl/maps/6D87j6YRxzCSRyd28
Erath,Pecan Valley Centers for Behavioral & Developmental HealthCare,Zachary Crawford,Pecan Valley,(817)736-6089,zcrawford@pecanvalley.org,2101 W. Pearl Street - Granbury,Granbury,76048,"32.43826972428891, -97.8098903735177",https://goo.gl/maps/Fwu38DS3TmJh9Ngv9
Hood,Pecan Valley Centers for Behavioral & Developmental HealthCare,Zachary Crawford,Pecan Valley,(817)736-6089,zcrawford@pecanvalley.org,2101 W. Pearl Street - Granbury,Granbury,76048,"32.43826972428891, -97.8098903735177",https://goo.gl/maps/Fwu38DS3TmJh9Ngv9
Johnson,Pecan Valley Centers for Behavioral & Developmental HealthCare,Zachary Crawford,Pecan Valley,(817)736-6089,zcrawford@pecanvalley.org,2101 W. Pearl Street - Granbury,Granbury,76048,"32.43826972428891, -97.8098903735177",https://goo.gl/maps/Fwu38DS3TmJh9Ngv9
Palo Pinto,Pecan Valley Centers for Behavioral & Developmental HealthCare,Zachary Crawford,Pecan Valley,(817)736-6089,zcrawford@pecanvalley.org,2101 W. Pearl Street - Granbury,Granbury,76048,"32.43826972428891, -97.8098903735177",https://goo.gl/maps/Fwu38DS3TmJh9Ngv9
Parker,Pecan Valley Centers for Behavioral & Developmental HealthCare,Zachary Crawford,Pecan Valley,(817)736-6089,zcrawford@pecanvalley.org,2101 W. Pearl Street - Granbury,Granbury,76048,"32.43826972428891, -97.8098903735177",https://goo.gl/maps/Fwu38DS3TmJh9Ngv9
Somervell,Pecan Valley Centers for Behavioral & Developmental HealthCare,Zachary Crawford,Pecan Valley,(817)736-6089,zcrawford@pecanvalley.org,2101 W. Pearl Street - Granbury,Granbury,76048,"32.43826972428891, -97.8098903735177",https://goo.gl/maps/Fwu38DS3TmJh9Ngv9
Brewster,Permian Basin Community Centers for MHMR,Jayni Whitefield,Midland/Odessa,432-556-5835,jayniwhitefield@permiacare.org,401 E. Illinois - Midland,Midland,79701,"32.00037179407111, -102.07046596003559",https://goo.gl/maps/GJQ4ZAp1kFYnhQVm6
Culberson,Permian Basin Community Centers for MHMR,Jayni Whitefield,Midland/Odessa,432-556-5835,jayniwhitefield@permiacare.org,401 E. Illinois - Midland,Midland,79701,"32.00037179407111, -102.07046596003559",https://goo.gl/maps/GJQ4ZAp1kFYnhQVm6
Ector,Permian Basin Community Centers for MHMR,Jayni Whitefield,Midland/Odessa,432-556-5835,jayniwhitefield@permiacare.org,401 E. Illinois - Midland,Midland,79701,"32.00037179407111, -102.07046596003559",https://goo.gl/maps/GJQ4ZAp1kFYnhQVm6
Hudspeth,Permian Basin Community Centers for MHMR,Jayni Whitefield,Midland/Odessa,432-556-5835,jayniwhitefield@permiacare.org,401 E. Illinois - Midland,Midland,79701,"32.00037179407111, -102.07046596003559",https://goo.gl/maps/GJQ4ZAp1kFYnhQVm6
Jeff Davis,Permian Basin Community Centers for MHMR,Jayni Whitefield,Midland/Odessa,432-556-5835,jayniwhitefield@permiacare.org,401 E. Illinois - Midland,Midland,79701,"32.00037179407111, -102.07046596003559",https://goo.gl/maps/GJQ4ZAp1kFYnhQVm6
Midland,Permian Basin Community Centers for MHMR,Jayni Whitefield,Midland/Odessa,432-556-5835,jayniwhitefield@permiacare.org,401 E. Illinois - Midland,Midland,79701,"32.00037179407111, -102.07046596003559",https://goo.gl/maps/GJQ4ZAp1kFYnhQVm6
Pecos,Permian Basin Community Centers for MHMR,Jayni Whitefield,Midland/Odessa,432-556-5835,jayniwhitefield@permiacare.org,401 E. Illinois - Midland,Midland,79701,"32.00037179407111, -102.07046596003559",https://goo.gl/maps/GJQ4ZAp1kFYnhQVm6
Presidio,Permian Basin Community Centers for MHMR,Jayni Whitefield,Midland/Odessa,432-556-5835,jayniwhitefield@permiacare.org,401 E. Illinois - Midland,Midland,79701,"32.00037179407111, -102.07046596003559",https://goo.gl/maps/GJQ4ZAp1kFYnhQVm6
Chambers,Spindletop Center,Robert Adair,Beaumont,409-540-0649,robert.adair@stctr.org,"2750 S. 8th Street, Bldg A - Beaumont",Beaumont,77701,"30.058404802443782, -94.12641346008262",https://goo.gl/maps/5mSbXUi49wxM5VmWA
Hardin,Spindletop Center,Robert Adair,Beaumont,409-540-0649,robert.adair@stctr.org,"2750 S. 8th Street, Bldg A - Beaumont",Beaumont,77701,"30.058404802443782, -94.12641346008262",https://goo.gl/maps/5mSbXUi49wxM5VmWA
Jefferson,Spindletop Center,Robert Adair,Beaumont,409-540-0649,robert.adair@stctr.org,"2750 S. 8th Street, Bldg A - Beaumont",Beaumont,77701,"30.058404802443782, -94.12641346008262",https://goo.gl/maps/5mSbXUi49wxM5VmWA
Orange,Spindletop Center,Robert Adair,Beaumont,409-540-0649,robert.adair@stctr.org,"2750 S. 8th Street, Bldg A - Beaumont",Beaumont,77701,"30.058404802443782, -94.12641346008262",https://goo.gl/maps/5mSbXUi49wxM5VmWA
Cochran,StarCare Specialty Health System,Andrew Gilpin,Lubbock,(806)470-9317,agilpin@vetstar.org,3804 I-27 and 38th Street - Lubbock,Lubbock,79403,"33.5621730157515, -101.84520967348897",https://goo.gl/maps/85aM64tjgCXU3moY7
Crosby,StarCare Specialty Health System,Andrew Gilpin,Lubbock,(806)470-9317,agilpin@vetstar.org,3804 I-27 and 38th Street - Lubbock,Lubbock,79403,"33.5621730157515, -101.84520967348897",https://goo.gl/maps/85aM64tjgCXU3moY7
Hockley,StarCare Specialty Health System,Andrew Gilpin,Lubbock,(806)470-9317,agilpin@vetstar.org,3804 I-27 and 38th Street - Lubbock,Lubbock,79403,"33.5621730157515, -101.84520967348897",https://goo.gl/maps/85aM64tjgCXU3moY7
Lubbock,StarCare Specialty Health System,Andrew Gilpin,Lubbock,(806)470-9317,agilpin@vetstar.org,3804 I-27 and 38th Street - Lubbock,Lubbock,79403,"33.5621730157515, -101.84520967348897",https://goo.gl/maps/85aM64tjgCXU3moY7
Lynn,StarCare Specialty Health System,Andrew Gilpin,Lubbock,(806)470-9317,agilpin@vetstar.org,3804 I-27 and 38th Street - Lubbock,Lubbock,79403,"33.5621730157515, -101.84520967348897",https://goo.gl/maps/85aM64tjgCXU3moY7
Austin,Texana Center,N/A,N/A,N/A,N/A,N/A,N/A,77457,"28.681800891390107, -96.03734056953611",
Colorado,Texana Center,N/A,N/A,N/A,N/A,N/A,N/A,77457,"28.681800891390107, -96.03734056953611",
Fort Bend,Texana Center,N/A,N/A,N/A,N/A,N/A,N/A,77457,"28.681800891390107, -96.03734056953611",
Matagorda,Texana Center,N/A,N/A,N/A,N/A,N/A,N/A,77457,"28.681800891390107, -96.03734056953611",
Waller,Texana Center,N/A,N/A,N/A,N/A,N/A,N/A,77457,"28.681800891390107, -96.03734056953611",
Wharton,Texana Center,N/A,N/A,N/A,N/A,N/A,N/A,77457,"28.681800891390107, -96.03734056953611",
Armstrong,Texas Panhandle Centers,Tousha Barnessss,Amarillo,(806)341-0581,tousha.barnes@txpan.org,1001 N. South Plk - Amarillo,Amarillo,79101,"35.2035534630252, -101.83765590228104",https://goo.gl/maps/QD8saceLXyA1DEAD7
Carson,Texas Panhandle Centers,Tousha Barnes,Amarillo,(806)341-0581,tousha.barnes@txpan.org,1001 N. South Plk - Amarillo,Amarillo,79101,"35.2035534630252, -101.83765590228104",https://goo.gl/maps/QD8saceLXyA1DEAD7
Collingsworth,Texas Panhandle Centers,Tousha Barnes,Amarillo,(806)341-0581,tousha.barnes@txpan.org,1001 N. South Plk - Amarillo,Amarillo,79101,"35.2035534630252, -101.83765590228104",https://goo.gl/maps/QD8saceLXyA1DEAD7
Dallam,Texas Panhandle Centers,Tousha Barnes,Amarillo,(806)341-0581,tousha.barnes@txpan.org,1001 N. South Plk - Amarillo,Amarillo,79101,"35.2035534630252, -101.83765590228104",https://goo.gl/maps/QD8saceLXyA1DEAD7
Deaf Smith,Texas Panhandle Centers,Tousha Barnes,Amarillo,(806)341-0581,tousha.barnes@txpan.org,1001 N. South Plk - Amarillo,Amarillo,79101,"35.2035534630252, -101.83765590228104",https://goo.gl/maps/QD8saceLXyA1DEAD7
Donley,Texas Panhandle Centers,Tousha Barnes,Amarillo,(806)341-0581,tousha.barnes@txpan.org,1001 N. South Plk - Amarillo,Amarillo,79101,"35.2035534630252, -101.83765590228104",https://goo.gl/maps/QD8saceLXyA1DEAD7
Gray,Texas Panhandle Centers,Tousha Barnes,Amarillo,(806)341-0581,tousha.barnes@txpan.org,1001 N. South Plk - Amarillo,Amarillo,79101,"35.2035534630252, -101.83765590228104",https://goo.gl/maps/QD8saceLXyA1DEAD7
Hall,Texas Panhandle Centers,Tousha Barnes,Amarillo,(806)341-0581,tousha.barnes@txpan.org,1001 N. South Plk - Amarillo,Amarillo,79101,"35.2035534630252, -101.83765590228104",https://goo.gl/maps/QD8saceLXyA1DEAD7
Hansford,Texas Panhandle Centers,Tousha Barnes,Amarillo,(806)341-0581,tousha.barnes@txpan.org,1001 N. South Plk - Amarillo,Amarillo,79101,"35.2035534630252, -101.83765590228104",https://goo.gl/maps/QD8saceLXyA1DEAD7
Hartley,Texas Panhandle Centers,Tousha Barnes,Amarillo,(806)341-0581,tousha.barnes@txpan.org,1001 N. South Plk - Amarillo,Amarillo,79101,"35.2035534630252, -101.83765590228104",https://goo.gl/maps/QD8saceLXyA1DEAD7
Hemphill,Texas Panhandle Centers,Tousha Barnes,Amarillo,(806)341-0581,tousha.barnes@txpan.org,1001 N. South Plk - Amarillo,Amarillo,79101,"35.2035534630252, -101.83765590228104",https://goo.gl/maps/QD8saceLXyA1DEAD7
Hutchinson,Texas Panhandle Centers,Tousha Barnes,Amarillo,(806)341-0581,tousha.barnes@txpan.org,1001 N. South Plk - Amarillo,Amarillo,79101,"35.2035534630252, -101.83765590228104",https://goo.gl/maps/QD8saceLXyA1DEAD7
Lipscomb,Texas Panhandle Centers,Tousha Barnes,Amarillo,(806)341-0581,tousha.barnes@txpan.org,1001 N. South Plk - Amarillo,Amarillo,79101,"35.2035534630252, -101.83765590228104",https://goo.gl/maps/QD8saceLXyA1DEAD7
Moore,Texas Panhandle Centers,Tousha Barnes,Amarillo,(806)341-0581,tousha.barnes@txpan.org,1001 N. South Plk - Amarillo,Amarillo,79101,"35.2035534630252, -101.83765590228104",https://goo.gl/maps/QD8saceLXyA1DEAD7
Ochiltree,Texas Panhandle Centers,Tousha Barnes,Amarillo,(806)341-0581,tousha.barnes@txpan.org,1001 N. South Plk - Amarillo,Amarillo,79101,"35.2035534630252, -101.83765590228104",https://goo.gl/maps/QD8saceLXyA1DEAD7
Oldham,Texas Panhandle Centers,Tousha Barnes,Amarillo,(806)341-0581,tousha.barnes@txpan.org,1001 N. South Plk - Amarillo,Amarillo,79101,"35.2035534630252, -101.83765590228104",https://goo.gl/maps/QD8saceLXyA1DEAD7
Potter,Texas Panhandle Centers,Tousha Barnes,Amarillo,(806)341-0581,tousha.barnes@txpan.org,1001 N. South Plk - Amarillo,Amarillo,79101,"35.2035534630252, -101.83765590228104",https://goo.gl/maps/QD8saceLXyA1DEAD7
Randall,Texas Panhandle Centers,Tousha Barnes,Amarillo,(806)341-0581,tousha.barnes@txpan.org,1001 N. South Plk - Amarillo,Amarillo,79101,"35.2035534630252, -101.83765590228104",https://goo.gl/maps/QD8saceLXyA1DEAD7
Roberts,Texas Panhandle Centers,Tousha Barnes,Amarillo,(806)341-0581,tousha.barnes@txpan.org,1001 N. South Plk - Amarillo,Amarillo,79101,"35.2035534630252, -101.83765590228104",https://goo.gl/maps/QD8saceLXyA1DEAD7
Sherman,Texas Panhandle Centers,Tousha Barnes,Amarillo,(806)341-0581,tousha.barnes@txpan.org,1001 N. South Plk - Amarillo,Amarillo,79101,"35.2035534630252, -101.83765590228104",https://goo.gl/maps/QD8saceLXyA1DEAD7
Wheeler,Texas Panhandle Centers,Tousha Barnes,Amarillo,(806)341-0581,tousha.barnes@txpan.org,1001 N. South Plk - Amarillo,Amarillo,79101,"35.2035534630252, -101.83765590228104",https://goo.gl/maps/QD8saceLXyA1DEAD7
Cooke,Texoma Community Center,Position Available,Cooke-Fannin-Grayson,TBA,TBA,315 W. McClain - Sherman,Sherman,75093,"33.66296888950626, -96.61952763115761",https://goo.gl/maps/RsAFm5k2yTzFqtDe9
Fannin,Texoma Community Center,Position Available,Cooke-Fannin-Grayson,TBA,TBA,315 W. McClain - Sherman,Sherman,75093,"33.66296888950626, -96.61952763115761",https://goo.gl/maps/RsAFm5k2yTzFqtDe9
Grayson,Texoma Community Center,Position Available,Cooke-Fannin-Grayson,TBA,TBA,315 W. McClain - Sherman,Sherman,75093,"33.66296888950626, -96.61952763115761",https://goo.gl/maps/RsAFm5k2yTzFqtDe9
Bexar,The Center for Health Care Services,Gregory Morton,San Antonio,(210)685-8716,gmorton@chcsbc.org,6800 Park Ten Blvd,San Antonio,78201,"29.488299626410743, -98.54334870242465",https://goo.gl/maps/YJVAC39mUFYLgjbC9
Liberty,Tri-County Behavioral Healthcare,Shirley Uriostegui,Conroe Area,(936)521-6132,ShirleyU@tcbhc.org,233 Sgt Ed Holcomb - Conroe,Conroe,77304,"30.305269618966673, -95.48268683124117",https://goo.gl/maps/SVNgoSuEpxmWNxCdA
Montgomery,Tri-County Behavioral Healthcare,Shirley Uriostegui,Conroe Area,(936)521-6132,ShirleyU@tcbhc.org,233 Sgt Ed Holcomb - Conroe,Conroe,77304,"30.305269618966673, -95.48268683124117",https://goo.gl/maps/SVNgoSuEpxmWNxCdA
Walker,Tri-County Behavioral Healthcare,Shirley Uriostegui,Conroe Area,(936)521-6132,ShirleyU@tcbhc.org,233 Sgt Ed Holcomb - Conroe,Conroe,77304,"30.305269618966673, -95.48268683124117",https://goo.gl/maps/SVNgoSuEpxmWNxCdA
Cameron,Tropical Texas Behavioral Health,Anthony Beltran,Rio Grande Valley,956-520-8967,anbeltran@ttbh.org,1901 S. 24th Ave,Edinburg,78539,"26.28255994662634, -98.1520573601664",https://goo.gl/maps/JNRFghCj27ukpwD19
Hidalgo,Tropical Texas Behavioral Health,Anthony Beltran,Rio Grande Valley,956-520-8967,anbeltran@ttbh.org,1901 S. 24th Ave,Edinburg,78539,"26.28255994662634, -98.1520573601664",https://goo.gl/maps/JNRFghCj27ukpwD19
Willacy,Tropical Texas Behavioral Health,Anthony Beltran,Rio Grande Valley,956-520-8967,anbeltran@ttbh.org,1901 S. 24th Ave,Edinburg,78539,"26.28255994662634, -98.1520573601664",https://goo.gl/maps/JNRFghCj27ukpwD19
Andrews,West Texas Centers,Vince Ramirez,Big Springs,432-606-4947,vince.ramirez@wtchmr.org,3205 S. Hwy 87,Big Spring,79720,"32.21981266032257, -101.46943813119448",https://goo.gl/maps/PA8T4xams6tVP3Tr6
Borden,West Texas Centers,Vince Ramirez,Big Springs,432-606-4947,vince.ramirez@wtchmr.org,3205 S. Hwy 87,Big Spring,79720,"32.21981266032257, -101.46943813119448",https://goo.gl/maps/PA8T4xams6tVP3Tr6
Crane,West Texas Centers,Vince Ramirez,Big Springs,432-606-4947,vince.ramirez@wtchmr.org,3205 S. Hwy 87,Big Spring,79720,"32.21981266032257, -101.46943813119448",https://goo.gl/maps/PA8T4xams6tVP3Tr6
Dawson,West Texas Centers,Vince Ramirez,Big Springs,432-606-4947,vince.ramirez@wtchmr.org,3205 S. Hwy 87,Big Spring,79720,"32.21981266032257, -101.46943813119448",https://goo.gl/maps/PA8T4xams6tVP3Tr6
Fisher,West Texas Centers,Vince Ramirez,Big Springs,432-606-4947,vince.ramirez@wtchmr.org,3205 S. Hwy 87,Big Spring,79720,"32.21981266032257, -101.46943813119448",https://goo.gl/maps/PA8T4xams6tVP3Tr6
Gaines,West Texas Centers,Vince Ramirez,Big Springs,432-606-4947,vince.ramirez@wtchmr.org,3205 S. Hwy 87,Big Spring,79720,"32.21981266032257, -101.46943813119448",https://goo.gl/maps/PA8T4xams6tVP3Tr6
Garza,West Texas Centers,Vince Ramirez,Big Springs,432-606-4947,vince.ramirez@wtchmr.org,3205 S. Hwy 87,Big Spring,79720,"32.21981266032257, -101.46943813119448",https://goo.gl/maps/PA8T4xams6tVP3Tr6
Glasscock,West Texas Centers,Vince Ramirez,Big Springs,432-606-4947,vince.ramirez@wtchmr.org,3205 S. Hwy 87,Big Spring,79720,"32.21981266032257, -101.46943813119448",https://goo.gl/maps/PA8T4xams6tVP3Tr6
Howard,West Texas Centers,Vince Ramirez,Big Springs,432-606-4947,vince.ramirez@wtchmr.org,3205 S. Hwy 87,Big Spring,79720,"32.21981266032257, -101.46943813119448",https://goo.gl/maps/PA8T4xams6tVP3Tr6
Kent,West Texas Centers,Vince Ramirez,Big Springs,432-606-4947,vince.ramirez@wtchmr.org,3205 S. Hwy 87,Big Spring,79720,"32.21981266032257, -101.46943813119448",https://goo.gl/maps/PA8T4xams6tVP3Tr6
Loving,West Texas Centers,Vince Ramirez,Big Springs,432-606-4947,vince.ramirez@wtchmr.org,3205 S. Hwy 87,Big Spring,79720,"32.21981266032257, -101.46943813119448",https://goo.gl/maps/PA8T4xams6tVP3Tr6
Martin,West Texas Centers,Vince Ramirez,Big Springs,432-606-4947,vince.ramirez@wtchmr.org,3205 S. Hwy 87,Big Spring,79720,"32.21981266032257, -101.46943813119448",https://goo.gl/maps/PA8T4xams6tVP3Tr6
Mitchell,West Texas Centers,Vince Ramirez,Big Springs,432-606-4947,vince.ramirez@wtchmr.org,3205 S. Hwy 87,Big Spring,79720,"32.21981266032257, -101.46943813119448",https://goo.gl/maps/PA8T4xams6tVP3Tr6
Nolan,West Texas Centers,Vince Ramirez,Big Springs,432-606-4947,vince.ramirez@wtchmr.org,3205 S. Hwy 87,Big Spring,79720,"32.21981266032257, -101.46943813119448",https://goo.gl/maps/PA8T4xams6tVP3Tr6
Reeves,West Texas Centers,Vince Ramirez,Big Springs,432-606-4947,vince.ramirez@wtchmr.org,3205 S. Hwy 87,Big Spring,79720,"32.21981266032257, -101.46943813119448",https://goo.gl/maps/PA8T4xams6tVP3Tr6
Runnels,West Texas Centers,Vince Ramirez,Big Springs,432-606-4947,vince.ramirez@wtchmr.org,3205 S. Hwy 87,Big Spring,79720,"32.21981266032257, -101.46943813119448",https://goo.gl/maps/PA8T4xams6tVP3Tr6
Scurry,West Texas Centers,Vince Ramirez,Big Springs,432-606-4947,vince.ramirez@wtchmr.org,3205 S. Hwy 87,Big Spring,79720,"32.21981266032257, -101.46943813119448",https://goo.gl/maps/PA8T4xams6tVP3Tr6
Terrell,West Texas Centers,Vince Ramirez,Big Springs,432-606-4947,vince.ramirez@wtchmr.org,3205 S. Hwy 87,Big Spring,79720,"32.21981266032257, -101.46943813119448",https://goo.gl/maps/PA8T4xams6tVP3Tr6
Terry,West Texas Centers,Vince Ramirez,Big Springs,432-606-4947,vince.ramirez@wtchmr.org,3205 S. Hwy 87,Big Spring,79720,"32.21981266032257, -101.46943813119448",https://goo.gl/maps/PA8T4xams6tVP3Tr6
Upton,West Texas Centers,Vince Ramirez,Big Springs,432-606-4947,vince.ramirez@wtchmr.org,3205 S. Hwy 87,Big Spring,79720,"32.21981266032257, -101.46943813119448",https://goo.gl/maps/PA8T4xams6tVP3Tr6
Ward,West Texas Centers,Vince Ramirez,Big Springs,432-606-4947,vince.ramirez@wtchmr.org,3205 S. Hwy 87,Big Spring,79720,"32.21981266032257, -101.46943813119448",https://goo.gl/maps/PA8T4xams6tVP3Tr6
Winkler,West Texas Centers,Vince Ramirez,Big Springs,432-606-4947,vince.ramirez@wtchmr.org,3205 S. Hwy 87,Big Spring,79720,"32.21981266032257, -101.46943813119448",https://goo.gl/maps/PA8T4xams6tVP3Tr6
Yoakum,West Texas Centers,Vince Ramirez,Big Springs,432-606-4947,vince.ramirez@wtchmr.org,3205 S. Hwy 87,Big Spring,79720,"32.21981266032257, -101.46943813119448",https://goo.gl/maps/PA8T4xams6tVP3Tr6
